{
    "links": {
        "self": "http://www.neowsapp.com/rest/v1/neo/3746216?api_key=iIulBulltgU6a56xZRHN4H3l9WmuAYTsLGpBGhQ2"
    },
    "id": "3746216",
    "neo_reference_id": "3746216",
    "name": "(2016 EG85)",
    "designation": "2016 EG85",
    "nasa_jpl_url": "http://ssd.jpl.nasa.gov/sbdb.cgi?sstr=3746216",
    "absolute_magnitude_h": 26.8,
    "estimated_diameter": {
        "kilometers": {
            "estimated_diameter_min": 0.0116025908,
            "estimated_diameter_max": 0.0259441818
        },
        "meters": {
            "estimated_diameter_min": 11.6025908209,
            "estimated_diameter_max": 25.9441817907
        },
        "miles": {
            "estimated_diameter_min": 0.0072095135,
            "estimated_diameter_max": 0.0161209622
        },
        "feet": {
            "estimated_diameter_min": 38.066244069,
            "estimated_diameter_max": 85.1187093863
        }
    },
    "is_potentially_hazardous_asteroid": false,
    "close_approach_data": [
        {
            "close_approach_date": "2016-03-04",
            "close_approach_date_full": "2016-Mar-04 00:32",
            "epoch_date_close_approach": 1457051520000,
            "relative_velocity": {
                "kilometers_per_second": "11.2082307334",
                "kilometers_per_hour": "40349.630640154",
                "miles_per_hour": "25071.691327489"
            },
            "miss_distance": {
                "astronomical": "0.016154082",
                "lunar": "6.283937898",
                "kilometers": "2416616.25900534",
                "miles": "1501615.712500092"
            },
            "orbiting_body": "Earth"
        },
        {
            "close_approach_date": "2084-12-03",
            "close_approach_date_full": "2084-Dec-03 11:34",
            "epoch_date_close_approach": 3626681640000,
            "relative_velocity": {
                "kilometers_per_second": "11.114632052",
                "kilometers_per_hour": "40012.6753870333",
                "miles_per_hour": "24862.3204370152"
            },
            "miss_distance": {
                "astronomical": "0.0953600795",
                "lunar": "37.0950709255",
                "kilometers": "14265664.776230665",
                "miles": "8864273.050146577"
            },
            "orbiting_body": "Earth"
        }
    ],
    "orbital_data": {
        "orbit_id": "7",
        "orbit_determination_date": "2018-02-10 07:07:45",
        "first_observation_date": "2016-03-07",
        "last_observation_date": "2016-03-17",
        "data_arc_in_days": 10,
        "observations_used": 31,
        "orbit_uncertainty": "8",
        "minimum_orbit_intersection": ".0101592",
        "jupiter_tisserand_invariant": "3.736",
        "epoch_osculation": "2457456.5",
        "eccentricity": ".5336795682975475",
        "semi_major_axis": "1.917181685783827",
        "inclination": "5.294190009000721",
        "ascending_node_longitude": "167.9019651792539",
        "orbital_period": "969.6016243087138",
        "perihelion_distance": ".8940209913667501",
        "perihelion_argument": "309.1754688971709",
        "aphelion_distance": "2.940342380200905",
        "perihelion_time": "2457417.213600282231",
        "mean_anomaly": "14.58651011283144",
        "mean_motion": ".3712865067203918",
        "equinox": "J2000",
        "orbit_class": {
            "orbit_class_type": "APO",
            "orbit_class_description": "Near-Earth asteroid orbits which cross the Earth’s orbit similar to that of 1862 Apollo",
            "orbit_class_range": "a (semi-major axis) > 1.0 AU; q (perihelion) < 1.017 AU"
        }
    },
    "is_sentry_object": false
}